{
  "type": "FeatureCollection",
  "features": [
    {
      "type": "Feature",
      "properties": {
        "norad_id": 52912,
        "name": "GAOFEN-12 03",
        "group": "resource",
        "lat": -9.921278028409207,
        "lon": -111.41899299021902,
        "alt_km": 633.990580261081,
        "timestamp": "2025-12-26T03:50:11.745620+00:00",
        "meta_object_name": "GAOFEN-12 03",
        "meta_object_id": "2022-069A",
        "meta_epoch": "2025-12-25T19:46:00.162336",
        "meta_mean_motion": 14.79639164,
        "meta_eccentricity": 0.0001784,
        "meta_inclination": 97.8476,
        "meta_ra_of_asc_node": 246.8703,
        "meta_arg_of_pericenter": 47.775,
        "meta_mean_anomaly": 312.3613,
        "meta_ephemeris_type": 0,
        "meta_classification_type": "U",
        "meta_norad_cat_id": 52912,
        "meta_element_set_no": 999,
        "meta_rev_at_epoch": 18897,
        "meta_bstar": 0.00014538,
        "meta_mean_motion_dot": 1.04e-05,
        "meta_mean_motion_ddot": 0,
        "tle_line1": "1 52912U 22069A   25359.82361299  .00001040  00000+0  14538-3 0  9990",
        "tle_line2": "2 52912  97.8476 246.8703 0001784  47.7750 312.3613 14.79639164188974"
      },
      "geometry": {
        "type": "Point",
        "coordinates": [
          -111.41899299021902,
          -9.921278028409207
        ]
      }
    },
    {
      "type": "Feature",
      "properties": {
        "norad_id": 54754,
        "name": "SWOT",
        "group": "resource",
        "lat": 75.27938094061955,
        "lon": 32.090272067603415,
        "alt_km": 885.5980731213676,
        "timestamp": "2025-12-26T03:50:11.745630+00:00",
        "meta_object_name": "SWOT",
        "meta_object_id": "2022-173A",
        "meta_epoch": "2025-12-25T18:47:45.176064",
        "meta_mean_motion": 14.00168821,
        "meta_eccentricity": 4.25e-05,
        "meta_inclination": 77.6108,
        "meta_ra_of_asc_node": 269.3831,
        "meta_arg_of_pericenter": 81.6962,
        "meta_mean_anomaly": 278.4238,
        "meta_ephemeris_type": 0,
        "meta_classification_type": "U",
        "meta_norad_cat_id": 54754,
        "meta_element_set_no": 999,
        "meta_rev_at_epoch": 15488,
        "meta_bstar": 8.536e-05,
        "meta_mean_motion_dot": 1.23e-06,
        "meta_mean_motion_ddot": 0,
        "tle_line1": "1 54754U 22173A   25359.78316176  .00000123  00000+0  85360-4 0  9994",
        "tle_line2": "2 54754  77.6108 269.3831 0000425  81.6962 278.4238 14.00168821154882"
      },
      "geometry": {
        "type": "Point",
        "coordinates": [
          32.090272067603415,
          75.27938094061955
        ]
      }
    },
    {
      "type": "Feature",
      "properties": {
        "norad_id": 57654,
        "name": "GAOFEN-12 04",
        "group": "resource",
        "lat": 15.370190898074618,
        "lon": 97.90513689612376,
        "alt_km": 630.8968592693873,
        "timestamp": "2025-12-26T03:50:11.745641+00:00",
        "meta_object_name": "GAOFEN-12 04",
        "meta_object_id": "2023-123A",
        "meta_epoch": "2025-12-25T20:36:16.970400",
        "meta_mean_motion": 14.79737214,
        "meta_eccentricity": 0.0001199,
        "meta_inclination": 97.9129,
        "meta_ra_of_asc_node": 275.4173,
        "meta_arg_of_pericenter": 80.215,
        "meta_mean_anomaly": 279.9197,
        "meta_ephemeris_type": 0,
        "meta_classification_type": "U",
        "meta_norad_cat_id": 57654,
        "meta_element_set_no": 999,
        "meta_rev_at_epoch": 12699,
        "meta_bstar": 0.00019935,
        "meta_mean_motion_dot": 1.447e-05,
        "meta_mean_motion_ddot": 0,
        "tle_line1": "1 57654U 23123A   25359.85852975  .00001447  00000+0  19935-3 0  9996",
        "tle_line2": "2 57654  97.9129 275.4173 0001199  80.2150 279.9197 14.79737214126997"
      },
      "geometry": {
        "type": "Point",
        "coordinates": [
          97.90513689612376,
          15.370190898074618
        ]
      }
    },
    {
      "type": "Feature",
      "properties": {
        "norad_id": 59065,
        "name": "PARS 1",
        "group": "resource",
        "lat": -75.44767839563171,
        "lon": 1.722182970606159,
        "alt_km": 452.120284303026,
        "timestamp": "2025-12-26T03:50:11.745651+00:00",
        "meta_object_name": "PARS 1",
        "meta_object_id": "2024-039Q",
        "meta_epoch": "2025-12-25T21:56:22.007040",
        "meta_mean_motion": 15.41273812,
        "meta_eccentricity": 0.0011453,
        "meta_inclination": 97.4655,
        "meta_ra_of_asc_node": 331.1297,
        "meta_arg_of_pericenter": 31.7657,
        "meta_mean_anomaly": 328.4278,
        "meta_ephemeris_type": 0,
        "meta_classification_type": "U",
        "meta_norad_cat_id": 59065,
        "meta_element_set_no": 999,
        "meta_rev_at_epoch": 10191,
        "meta_bstar": 0.00030446,
        "meta_mean_motion_dot": 0.00012614,
        "meta_mean_motion_ddot": 0,
        "tle_line1": "1 59065U 24039Q   25359.91414360  .00012614  00000+0  30446-3 0  9998",
        "tle_line2": "2 59065  97.4655 331.1297 0011453  31.7657 328.4278 15.41273812101912"
      },
      "geometry": {
        "type": "Point",
        "coordinates": [
          1.722182970606159,
          -75.44767839563171
        ]
      }
    },
    {
      "type": "Feature",
      "properties": {
        "norad_id": 59371,
        "name": "RESURS-P 4",
        "group": "resource",
        "lat": -8.908415894942875,
        "lon": -52.6387977531141,
        "alt_km": 473.4593634763387,
        "timestamp": "2025-12-26T03:50:11.745661+00:00",
        "meta_object_name": "RESURS-P 4",
        "meta_object_id": "2024-061A",
        "meta_epoch": "2025-12-25T20:02:19.502880",
        "meta_mean_motion": 15.32200484,
        "meta_eccentricity": 7.93e-05,
        "meta_inclination": 97.2563,
        "meta_ra_of_asc_node": 305.8984,
        "meta_arg_of_pericenter": 85.0819,
        "meta_mean_anomaly": 275.0514,
        "meta_ephemeris_type": 0,
        "meta_classification_type": "U",
        "meta_norad_cat_id": 59371,
        "meta_element_set_no": 999,
        "meta_rev_at_epoch": 9721,
        "meta_bstar": 0.00013741,
        "meta_mean_motion_dot": 4.196e-05,
        "meta_mean_motion_ddot": 0,
        "tle_line1": "1 59371U 24061A   25359.83494795  .00004196  00000+0  13741-3 0  9999",
        "tle_line2": "2 59371  97.2563 305.8984 0000793  85.0819 275.0514 15.32200484 97218"
      },
      "geometry": {
        "type": "Point",
        "coordinates": [
          -52.6387977531141,
          -8.908415894942875
        ]
      }
    },
    {
      "type": "Feature",
      "properties": {
        "norad_id": 59625,
        "name": "LEGION 1",
        "group": "resource",
        "lat": -4.201150456915027,
        "lon": -105.87233335722858,
        "alt_km": 518.8918743283593,
        "timestamp": "2025-12-26T03:50:11.745672+00:00",
        "meta_object_name": "LEGION 1",
        "meta_object_id": "2024-081A",
        "meta_epoch": "2025-12-25T19:06:34.308288",
        "meta_mean_motion": 15.16606525,
        "meta_eccentricity": 0.0003621,
        "meta_inclination": 97.5193,
        "meta_ra_of_asc_node": 74.3231,
        "meta_arg_of_pericenter": 256.319,
        "meta_mean_anomaly": 103.764,
        "meta_ephemeris_type": 0,
        "meta_classification_type": "U",
        "meta_norad_cat_id": 59625,
        "meta_element_set_no": 999,
        "meta_rev_at_epoch": 9125,
        "meta_bstar": 0.00025851,
        "meta_mean_motion_dot": 4.985e-05,
        "meta_mean_motion_ddot": 0,
        "tle_line1": "1 59625U 24081A   25359.79623042  .00004985  00000+0  25851-3 0  9998",
        "tle_line2": "2 59625  97.5193  74.3231 0003621 256.3190 103.7640 15.16606525 91256"
      },
      "geometry": {
        "type": "Point",
        "coordinates": [
          -105.87233335722858,
          -4.201150456915027
        ]
      }
    },
    {
      "type": "Feature",
      "properties": {
        "norad_id": 59626,
        "name": "LEGION 2",
        "group": "resource",
        "lat": 4.425386479931566,
        "lon": 74.18595124563281,
        "alt_km": 521.0351893356801,
        "timestamp": "2025-12-26T03:50:11.745682+00:00",
        "meta_object_name": "LEGION 2",
        "meta_object_id": "2024-081B",
        "meta_epoch": "2025-12-25T18:18:58.059936",
        "meta_mean_motion": 15.16619345,
        "meta_eccentricity": 0.0005828,
        "meta_inclination": 97.5196,
        "meta_ra_of_asc_node": 74.3784,
        "meta_arg_of_pericenter": 237.5346,
        "meta_mean_anomaly": 122.5324,
        "meta_ephemeris_type": 0,
        "meta_classification_type": "U",
        "meta_norad_cat_id": 59626,
        "meta_element_set_no": 999,
        "meta_rev_at_epoch": 9125,
        "meta_bstar": 0.00030017,
        "meta_mean_motion_dot": 5.803e-05,
        "meta_mean_motion_ddot": 0,
        "tle_line1": "1 59626U 24081B   25359.76317199  .00005803  00000+0  30017-3 0  9999",
        "tle_line2": "2 59626  97.5196  74.3784 0005828 237.5346 122.5324 15.16619345 91250"
      },
      "geometry": {
        "type": "Point",
        "coordinates": [
          74.18595124563281,
          4.425386479931566
        ]
      }
    }
  ]
}